{"type": "FeatureCollection", "features": [ {"type": "Feature", "properties": {"norad_id": 41836, "name": "HIMAWARI-9", "group": "weather", "lat": -0.02057978579426928, "lon": -167.559083024859, "alt_km": 35788.10486367246, "timestamp": "2025-12-17T21:39:45.355271+00:00", "meta": {"OBJECT_NAME": "HIMAWARI-9", "OBJECT_ID": "2016-064A", "EPOCH": "2025-12-17T12:55:35.210208", "MEAN_MOTION": 1.00268614, "ECCENTRICITY": 9.785e-05, "INCLINATION": 0.0129, "RA_OF_ASC_NODE": 280.3424, "ARG_OF_PERICENTER": 17.6826, "MEAN_ANOMALY": 123.0419, "EPHEMERIS_TYPE": 0, "CLASSIFICATION_TYPE": "U", "NORAD_CAT_ID": 41836, "ELEMENT_SET_NO": 999, "REV_AT_EPOCH": 3338, "BSTAR": 0, "MEAN_MOTION_DOT": -2.5e-06, "MEAN_MOTION_DDOT": 0}, "tle": {"line1": "1 41836U 16064A   25351.53860197 -.00000250  00000+0  00000+0 0  9990", "line2": "2 41836   0.0129 280.3424 0000978  17.6826 123.0419  1.00268614 33388"}}, "geometry": {"type": "Point", "coordinates": [-167.559083024859, -0.02057978579426928]}}, {"type": "Feature", "properties": {"norad_id": 41866, "name": "GOES 16", "group": "weather", "lat": -0.0425347409189045, "lon": -52.905031747097304, "alt_km": 35764.74112612042, "timestamp": "2025-12-17T21:39:45.355282+00:00", "meta": {"OBJECT_NAME": "GOES 16", "OBJECT_ID": "2016-071A", "EPOCH": "2025-12-17T12:03:27.300384", "MEAN_MOTION": 1.00295219, "ECCENTRICITY": 0.00041522, "INCLINATION": 0.0692, "RA_OF_ASC_NODE": 105.9501, "ARG_OF_PERICENTER": 168.4488, "MEAN_ANOMALY": 248.1785, "EPHEMERIS_TYPE": 0, "CLASSIFICATION_TYPE": "U", "NORAD_CAT_ID": 41866, "ELEMENT_SET_NO": 999, "REV_AT_EPOCH": 3328, "BSTAR": 0, "MEAN_MOTION_DOT": -7e-07, "MEAN_MOTION_DDOT": 0}, "tle": {"line1": "1 41866U 16071A   25351.50239931 -.00000070  00000+0  00000+0 0  9994", "line2": "2 41866   0.0692 105.9501 0004152 168.4488 248.1785  1.00295219 33286"}}, "geometry": {"type": "Point", "coordinates": [-52.905031747097304, -0.0425347409189045]}}, {"type": "Feature", "properties": {"norad_id": 41882, "name": "FENGYUN 4A", "group": "weather", "lat": 1.855586563310679, "lon": 175.44015114511706, "alt_km": 35774.91914343339, "timestamp": "2025-12-17T21:39:45.355293+00:00", "meta": {"OBJECT_NAME": "FENGYUN 4A", "OBJECT_ID": "2016-077A", "EPOCH": "2025-12-17T15:37:39.321120", "MEAN_MOTION": 1.00267587, "ECCENTRICITY": 0.00045314, "INCLINATION": 1.8615, "RA_OF_ASC_NODE": 82.3445, "ARG_OF_PERICENTER": 143.4477, "MEAN_ANOMALY": 218.9258, "EPHEMERIS_TYPE": 0, "CLASSIFICATION_TYPE": "U", "NORAD_CAT_ID": 41882, "ELEMENT_SET_NO": 999, "REV_AT_EPOCH": 3311, "BSTAR": 0, "MEAN_MOTION_DOT": -3.33e-06, "MEAN_MOTION_DDOT": 0}, "tle": {"line1": "1 41882U 16077A   25351.65114955 -.00000333  00000+0  00000+0 0  9994", "line2": "2 41882   1.8615  82.3445 0004531 143.4477 218.9258  1.00267587 33114"}}, "geometry": {"type": "Point", "coordinates": [175.44015114511706, 1.855586563310679]}}, {"type": "Feature", "properties": {"norad_id": 41884, "name": "CYGFM05", "group": "weather", "lat": 9.941671085288137, "lon": 27.930363609970346, "alt_km": 426.72430360590715, "timestamp": "2025-12-17T21:39:45.355303+00:00", "meta": {"OBJECT_NAME": "CYGFM05", "OBJECT_ID": "2016-078A", "EPOCH": "2025-12-17T09:12:12.228768", "MEAN_MOTION": 15.47807329, "ECCENTRICITY": 0.00106476, "INCLINATION": 34.9607, "RA_OF_ASC_NODE": 16.7934, "ARG_OF_PERICENTER": 224.7859, "MEAN_ANOMALY": 135.2004, "EPHEMERIS_TYPE": 0, "CLASSIFICATION_TYPE": "U", "NORAD_CAT_ID": 41884, "ELEMENT_SET_NO": 999, "REV_AT_EPOCH": 50048, "BSTAR": 0.00031164577, "MEAN_MOTION_DOT": 0.00016701, "MEAN_MOTION_DDOT": 0}, "tle": {"line1": "1 41884U 16078A   25351.38347487  .00016701  00000+0  31165-3 0  9990", "line2": "2 41884  34.9607  16.7934 0010647 224.7859 135.2004 15.47807329500489"}}, "geometry": {"type": "Point", "coordinates": [27.930363609970346, 9.941671085288137]}}, {"type": "Feature", "properties": {"norad_id": 41885, "name": "CYGFM04", "group": "weather", "lat": -26.806882812369086, "lon": -58.346406733653595, "alt_km": 412.65542285620177, "timestamp": "2025-12-17T21:39:45.355313+00:00", "meta": {"OBJECT_NAME": "CYGFM04", "OBJECT_ID": "2016-078B", "EPOCH": "2025-12-17T09:31:26.788512", "MEAN_MOTION": 15.50553035, "ECCENTRICITY": 0.00097836, "INCLINATION": 34.9357, "RA_OF_ASC_NODE": 351.3477, "ARG_OF_PERICENTER": 250.2509, "MEAN_ANOMALY": 109.7158, "EPHEMERIS_TYPE": 0, "CLASSIFICATION_TYPE": "U", "NORAD_CAT_ID": 41885, "ELEMENT_SET_NO": 999, "REV_AT_EPOCH": 50066, "BSTAR": 0.0003301433, "MEAN_MOTION_DOT": 0.00019503, "MEAN_MOTION_DDOT": 0}, "tle": {"line1": "1 41885U 16078B   25351.39683783  .00019503  00000+0  33014-3 0  9992", "line2": "2 41885  34.9357 351.3477 0009783 250.2509 109.7158 15.50553035500669"}}, "geometry": {"type": "Point", "coordinates": [-58.346406733653595, -26.806882812369086]}}, {"type": "Feature", "properties": {"norad_id": 41886, "name": "CYGFM02", "group": "weather", "lat": -7.4374756641607345, "lon": -24.487550942928184, "alt_km": 410.99539548017856, "timestamp": "2025-12-17T21:39:45.355322+00:00", "meta": {"OBJECT_NAME": "CYGFM02", "OBJECT_ID": "2016-078C", "EPOCH": "2025-12-17T09:22:05.188512", "MEAN_MOTION": 15.51946269, "ECCENTRICITY": 0.0011448, "INCLINATION": 34.9445, "RA_OF_ASC_NODE": 349.6561, "ARG_OF_PERICENTER": 250.5116, "MEAN_ANOMALY": 109.437, "EPHEMERIS_TYPE": 0, "CLASSIFICATION_TYPE": "U", "NORAD_CAT_ID": 41886, "ELEMENT_SET_NO": 999, "REV_AT_EPOCH": 50079, "BSTAR": 0.00033696175, "MEAN_MOTION_DOT": 0.00020947, "MEAN_MOTION_DDOT": 0}, "tle": {"line1": "1 41886U 16078C   25351.39033783  .00020947  00000+0  33696-3 0  9992", "line2": "2 41886  34.9445 349.6561 0011448 250.5116 109.4370 15.51946269500793"}}, "geometry": {"type": "Point", "coordinates": [-24.487550942928184, -7.4374756641607345]}}, {"type": "Feature", "properties": {"norad_id": 41887, "name": "CYGFM01", "group": "weather", "lat": 33.108986284145296, "lon": 84.7709662962712, "alt_km": 421.2005968103622, "timestamp": "2025-12-17T21:39:45.355332+00:00", "meta": {"OBJECT_NAME": "CYGFM01", "OBJECT_ID": "2016-078D", "EPOCH": "2025-12-17T12:03:57.828960", "MEAN_MOTION": 15.48396099, "ECCENTRICITY": 0.00102346, "INCLINATION": 34.9438, "RA_OF_ASC_NODE": 18.3303, "ARG_OF_PERICENTER": 218.2007, "MEAN_ANOMALY": 141.799, "EPHEMERIS_TYPE": 0, "CLASSIFICATION_TYPE": "U", "NORAD_CAT_ID": 41887, "ELEMENT_SET_NO": 999, "REV_AT_EPOCH": 50044, "BSTAR": 0.00031016822, "MEAN_MOTION_DOT": 0.00016968, "MEAN_MOTION_DDOT": 0}, "tle": {"line1": "1 41887U 16078D   25351.50275265  .00016968  00000+0  31017-3 0  9992", "line2": "2 41887  34.9438  18.3303 0010234 218.2007 141.7990 15.48396099500447"}}, "geometry": {"type": "Point", "coordinates": [84.7709662962712, 33.108986284145296]}}, {"type": "Feature", "properties": {"norad_id": 41888, "name": "CYGFM08", "group": "weather", "lat": 19.872838114094893, "lon": 147.47413832647027, "alt_km": 415.3757418104278, "timestamp": "2025-12-17T21:39:45.355342+00:00", "meta": {"OBJECT_NAME": "CYGFM08", "OBJECT_ID": "2016-078E", "EPOCH": "2025-12-17T10:13:20.355456", "MEAN_MOTION": 15.49609627, "ECCENTRICITY": 0.0011954, "INCLINATION": 34.9467, "RA_OF_ASC_NODE": 1.7697, "ARG_OF_PERICENTER": 240.3612, "MEAN_ANOMALY": 119.592, "EPHEMERIS_TYPE": 0, "CLASSIFICATION_TYPE": "U", "NORAD_CAT_ID": 41888, "ELEMENT_SET_NO": 999, "REV_AT_EPOCH": 50066, "BSTAR": 0.00032472231, "MEAN_MOTION_DOT": 0.00018563, "MEAN_MOTION_DDOT": 0}, "tle": {"line1": "1 41888U 16078E   25351.42593004  .00018563  00000+0  32472-3 0  9997", "line2": "2 41888  34.9467   1.7697 0011954 240.3612 119.5920 15.49609627500665"}}, "geometry": {"type": "Point", "coordinates": [147.47413832647027, 19.872838114094893]}}, {"type": "Feature", "properties": {"norad_id": 41890, "name": "CYGFM07", "group": "weather", "lat": 20.532808115127192, "lon": 135.16528033386012, "alt_km": 415.1900223782868, "timestamp": "2025-12-17T21:39:45.355353+00:00", "meta": {"OBJECT_NAME": "CYGFM07", "OBJECT_ID": "2016-078G", "EPOCH": "2025-12-17T10:13:57.494496", "MEAN_MOTION": 15.50196699, "ECCENTRICITY": 0.00101412, "INCLINATION": 34.9484, "RA_OF_ASC_NODE": 350.7211, "ARG_OF_PERICENTER": 255.6355, "MEAN_ANOMALY": 104.3242, "EPHEMERIS_TYPE": 0, "CLASSIFICATION_TYPE": "U", "NORAD_CAT_ID": 41890, "ELEMENT_SET_NO": 999, "REV_AT_EPOCH": 50068, "BSTAR": 0.0003228489, "MEAN_MOTION_DOT": 0.0001883, "MEAN_MOTION_DDOT": 0}, "tle": {"line1": "1 41890U 16078G   25351.42635989  .00018830  00000+0  32285-3 0  9998", "line2": "2 41890  34.9484 350.7211 0010141 255.6355 104.3242 15.50196699500689"}}, "geometry": {"type": "Point", "coordinates": [135.16528033386012, 20.532808115127192]}}, {"type": "Feature", "properties": {"norad_id": 41891, "name": "CYGFM03", "group": "weather", "lat": -13.925414853565902, "lon": -31.27987876108909, "alt_km": 416.5389392445213, "timestamp": "2025-12-17T21:39:45.355362+00:00", "meta": {"OBJECT_NAME": "CYGFM03", "OBJECT_ID": "2016-078H", "EPOCH": "2025-12-17T09:24:14.472288", "MEAN_MOTION": 15.50092545, "ECCENTRICITY": 0.00096623, "INCLINATION": 34.9438, "RA_OF_ASC_NODE": 352.869, "ARG_OF_PERICENTER": 243.4739, "MEAN_ANOMALY": 116.4992, "EPHEMERIS_TYPE": 0, "CLASSIFICATION_TYPE": "U", "NORAD_CAT_ID": 41891, "ELEMENT_SET_NO": 999, "REV_AT_EPOCH": 50065, "BSTAR": 0.00032562614, "MEAN_MOTION_DOT": 0.00018919, "MEAN_MOTION_DDOT": 0}, "tle": {"line1": "1 41891U 16078H   25351.39183417  .00018919  00000+0  32563-3 0  9996", "line2": "2 41891  34.9438 352.8690 0009662 243.4739 116.4992 15.50092545500658"}}, "geometry": {"type": "Point", "coordinates": [-31.27987876108909, -13.925414853565902]}}]}